NORAD_CAT_ID,OBJECT_NAME,OBJECT_TYPE,EPOCH,MEAN_MOTION,ECCENTRICITY,INCLINATION,RA_OF_ASC_NODE,ARG_OF_PERICENTER,MEAN_ANOMALY,BSTAR,MEAN_MOTION_DOT,MEAN_MOTION_DDOT,TLE_LINE0,TLE_LINE1,TLE_LINE2,SEMIMAJOR_AXIS,PERIOD,APOGEE,PERIGEE,DECAYED
53996.0,STARLINK-5131,PAYLOAD,2023-05-31 01:50:03,15.08849362,0.00011,53.2169,84.2441,88.0061,272.1057,6.7029e-05,7.79e-06,0.0,0 STARLINK-5131,1 53996U 22125AJ  23151.07642475  .00000779  00000-0  67029-4 0  9992,2 53996  53.2169  84.2441 0001100  88.0061 272.1057 15.08849362 36513,6917.852,95.437,540.478,538.956,0.0
53996.0,STARLINK-5131,PAYLOAD,2023-06-01 01:40:50,15.08842244,0.0001067,53.2167,79.7841,92.9794,267.132,0.00011461,1.537e-05,0.0,0 STARLINK-5131,1 53996U 22125AJ  23152.07002656  .00001537  00000-0  11461-3 0  9995,2 53996  53.2167  79.7841 0001067  92.9794 267.1320 15.08842244 36668,6917.874,95.437,540.477,539.0,0.0
53996.0,STARLINK-5131,PAYLOAD,2023-06-01 04:51:36,15.08846255,0.0001092,53.2169,79.1887,94.4086,265.7031,0.00013112,1.8e-05,0.0,0 STARLINK-5131,1 53996U 22125AJ  23152.20250355  .00001800  00000-0  13112-3 0  9999,2 53996  53.2169  79.1887 0001092  94.4086 265.7031 15.08846255 36617,6917.861,95.437,540.482,538.971,0.0
53996.0,STARLINK-5131,PAYLOAD,2023-06-02 01:31:37,15.08839399,0.0001104,53.2169,75.3234,91.5276,268.5842,-1.1698e-06,-3.06e-06,0.0,0 STARLINK-5131,1 53996U 22125AJ  23153.06363249 -.00000306  00000-0 -11698-5 0  9992,2 53996  53.2169  75.3234 0001104  91.5276 268.5842 15.08839399 36818,6917.882,95.438,540.511,538.983,0.0
53996.0,STARLINK-5131,PAYLOAD,2023-06-02 04:42:23,15.08841758,0.0001156,53.217,74.7277,92.7836,267.3288,5.1336e-06,-2.06e-06,0.0,0 STARLINK-5131,1 53996U 22125AJ  23153.19611077 -.00000206  00000-0  51336-5 0  9992,2 53996  53.2170  74.7277 0001156  92.7836 267.3288 15.08841758 36769,6917.875,95.437,540.54,538.94,0.0
53996.0,STARLINK-5131,PAYLOAD,2023-06-02 22:11:39,15.08833479,0.0001241,53.2174,71.4546,97.9816,262.1316,-1.1978e-05,-4.78e-06,0.0,0 STARLINK-5131,1 53996U 22125AJ  23153.92475880 -.00000478  00000-0 -11978-4 0  9992,2 53996  53.2174  71.4546 0001241  97.9816 262.1316 15.08833479 36874,6917.9,95.438,540.624,538.907,0.0
53996.0,STARLINK-5131,PAYLOAD,2023-06-03 01:22:25,15.08838649,0.0001149,53.2172,70.8626,89.6744,270.438,-1.2129e-05,-4.81e-06,0.0,0 STARLINK-5131,1 53996U 22125AJ  23154.05723569 -.00000481  00000-0 -12129-4 0  9990,2 53996  53.2172  70.8626 0001149  89.6744 270.4380 15.08838649 36898,6917.885,95.438,540.544,538.955,0.0
53996.0,STARLINK-5131,PAYLOAD,2023-06-03 18:51:39,15.08837495,0.0001143,53.2171,67.5914,83.135,276.9772,4.1944e-05,3.8e-06,0.0,0 STARLINK-5131,1 53996U 22125AJ  23154.78587903  .00000380  00000-0  41944-4 0  9993,2 53996  53.2171  67.5914 0001143  83.1350 276.9772 15.08837495 37071,6917.888,95.438,540.544,538.962,0.0
53996.0,STARLINK-5131,PAYLOAD,2023-06-03 22:02:26,15.08838847,0.0001172,53.2174,66.9967,84.3538,275.7588,6.582e-05,7.6e-06,0.0,0 STARLINK-5131,1 53996U 22125AJ  23154.91835789  .00000760  00000-0  65820-4 0  9997,2 53996  53.2174  66.9967 0001172  84.3538 275.7588 15.08838847 37027,6917.884,95.438,540.56,538.938,0.0
53996.0,STARLINK-5131,PAYLOAD,2023-06-04 01:13:12,15.08843949,0.0001134,53.2173,66.4022,84.3299,275.7822,0.0001112,1.483e-05,0.0,0 STARLINK-5131,1 53996U 22125AJ  23155.05083375  .00001483  00000-0  11120-3 0  9995,2 53996  53.2173  66.4022 0001134  84.3299 275.7822 15.08843949 37115,6917.868,95.437,540.518,538.949,0.0
53996.0,STARLINK-5131,PAYLOAD,2023-06-04 13:56:17,15.08835462,0.0001171,53.2173,64.0234,92.0837,268.0289,0.00011528,1.547e-05,0.0,0 STARLINK-5131,1 53996U 22125AJ  23155.58075932  .00001547  00000-0  11528-3 0  9996,2 53996  53.2173  64.0234 0001171  92.0837 268.0289 15.08835462 37190,6917.894,95.438,540.569,538.949,0.0
53996.0,STARLINK-5131,PAYLOAD,2023-06-04 21:53:13,15.0883832,0.0001132,53.2174,62.5366,81.0699,279.0422,4.1037e-05,3.65e-06,0.0,0 STARLINK-5131,1 53996U 22125AJ  23155.91196123  .00000365  00000-0  41037-4 0  9995,2 53996  53.2174  62.5366 0001132  81.0699 279.0422 15.08838320 37176,6917.886,95.438,540.534,538.967,0.0
53996.0,STARLINK-5131,PAYLOAD,2023-06-05 04:14:46,15.08795693,0.0001448,53.2172,61.347,84.613,275.5027,0.00081883,0.00012752,0.0,0 STARLINK-5131,1 53996U 22125AJ  23156.17692925  .00012752  00000-0  81883-3 0  9990,2 53996  53.2172  61.3470 0001448  84.6130 275.5027 15.08795693 37285,6918.016,95.44,540.883,538.879,0.0
53996.0,STARLINK-5131,PAYLOAD,2023-06-05 10:36:18,15.08838616,0.0001088,53.2176,60.1576,86.3093,273.8023,6.1132e-05,6.85e-06,0.0,0 STARLINK-5131,1 53996U 22125AJ  23156.44188029  .00000685  00000-0  61132-4 0  9993,2 53996  53.2176  60.1576 0001088  86.3093 273.8023 15.08838616 37325,6917.885,95.438,540.502,538.997,0.0
53996.0,STARLINK-5131,PAYLOAD,2023-06-05 20:08:37,15.08836872,0.0001107,53.2175,58.3733,86.2471,273.8648,1.4034e-05,-6.4e-07,0.0,0 STARLINK-5131,1 53996U 22125AJ  23156.83932418 -.00000064  00000-0  14034-4 0  9996,2 53996  53.2175  58.3733 0001107  86.2471 273.8648 15.08836872 37313,6917.89,95.438,540.521,538.989,0.0
53996.0,STARLINK-5131,PAYLOAD,2023-06-06 02:30:09,15.08842532,0.0001156,53.2173,57.1841,84.0375,276.0749,7.2051e-05,8.59e-06,0.0,0 STARLINK-5131,1 53996U 22125AJ  23157.10427896  .00000859  00000-0  72051-4 0  9990,2 53996  53.2173  57.1841 0001156  84.0375 276.0749 15.08842532 37352,6917.873,95.437,540.537,538.938,0.0
53996.0,STARLINK-5131,PAYLOAD,2023-06-07 02:20:56,15.08849217,0.0001246,53.2175,52.7223,86.8961,273.2174,8.8288e-05,1.118e-05,0.0,0 STARLINK-5131,1 53996U 22125AJ  23158.09787445  .00001118  00000-0  88288-4 0  9996,2 53996  53.2175  52.7223 0001246  86.8961 273.2174 15.08849217 37572,6917.852,95.437,540.579,538.855,0.0
53996.0,STARLINK-5131,PAYLOAD,2023-06-07 16:39:25,15.08833778,0.0001164,53.2183,50.0469,87.6188,272.4937,6.3142e-05,7.17e-06,0.0,0 STARLINK-5131,1 53996U 22125AJ  23158.69404552  .00000717  00000-0  63142-4 0  9993,2 53996  53.2183  50.0469 0001164  87.6188 272.4937 15.08833778 37666,6917.899,95.438,540.57,538.959,0.0
53996.0,STARLINK-5131,PAYLOAD,2023-06-07 21:25:34,15.08834928,0.000124,53.2178,49.1539,86.518,273.5954,5.534e-05,5.93e-06,0.0,0 STARLINK-5131,1 53996U 22125AJ  23158.89276597  .00000593  00000-0  55340-4 0  9994,2 53996  53.2178  49.1539 0001240  86.5180 273.5954 15.08834928 37627,6917.896,95.438,540.619,538.903,0.0
53996.0,STARLINK-5131,PAYLOAD,2023-06-08 02:11:43,15.08843031,0.0001206,53.218,48.2619,85.0788,275.0342,5.1903e-05,5.38e-06,0.0,0 STARLINK-5131,1 53996U 22125AJ  23159.09148119  .00000538  00000-0  51903-4 0  9995,2 53996  53.2180  48.2619 0001206  85.0788 275.0342 15.08843031 37723,6917.871,95.437,540.57,538.902,0.0
53996.0,STARLINK-5131,PAYLOAD,2023-06-08 22:51:44,15.08851221,0.0001218,53.2179,44.3963,84.248,275.8651,7.3205e-05,8.78e-06,0.0,0 STARLINK-5131,1 53996U 22125AJ  23159.95259525  .00000878  00000-0  73205-4 0  9990,2 53996  53.2179  44.3963 0001218  84.2480 275.8651 15.08851221 37780,6917.846,95.437,540.554,538.868,0.0
53996.0,STARLINK-5131,PAYLOAD,2023-06-10 01:53:18,15.08840389,0.0001264,53.2175,39.3418,89.335,270.7787,9.9691e-05,1.299e-05,0.0,0 STARLINK-5131,1 53996U 22125AJ  23161.07868064  .00001299  00000-0  99691-4 0  9995,2 53996  53.2175  39.3418 0001264  89.3350 270.7787 15.08840389 38023,6917.879,95.438,540.619,538.87,0.0
53996.0,STARLINK-5131,PAYLOAD,2023-06-10 16:11:46,15.08848847,0.0001166,53.2165,36.6652,104.6602,255.4519,-0.00013735,-2.474e-05,0.0,0 STARLINK-5131,1 53996U 22125AJ  23161.67484379 -.00002474  00000-0 -13735-3 0  9996,2 53996  53.2165  36.6652 0001166 104.6602 255.4519 15.08848847 38046,6917.853,95.437,540.525,538.912,0.0
53996.0,STARLINK-5131,PAYLOAD,2023-06-11 08:05:37,15.08841933,9.14e-05,53.2179,33.6903,90.5686,269.5411,4.0035e-05,3.5e-06,0.0,0 STARLINK-5131,1 53996U 22125AJ  23162.33724048  .00000350  00000-0  40035-4 0  9993,2 53996  53.2179  33.6903 0000914  90.5686 269.5411 15.08841933 38217,6917.874,95.437,540.372,539.107,0.0
53996.0,STARLINK-5131,PAYLOAD,2023-06-11 16:02:33,15.08835326,0.0001052,53.2175,32.2044,107.0255,253.0853,1.4428e-05,-5.8e-07,0.0,0 STARLINK-5131,1 53996U 22125AJ  23162.66844704 -.00000058  00000-0  14428-4 0  9994,2 53996  53.2175  32.2044 0001052 107.0255 253.0853 15.08835326 38266,6917.895,95.438,540.487,539.032,0.0
53996.0,STARLINK-5131,PAYLOAD,2023-06-11 22:24:05,15.0884147,9.16e-05,53.2171,31.0165,107.6177,252.4915,3.5071e-05,2.71e-06,0.0,0 STARLINK-5131,1 53996U 22125AJ  23162.93340260  .00000271  00000-0  35071-4 0  9995,2 53996  53.2171  31.0165 0000916 107.6177 252.4915 15.08841470 38236,6917.876,95.437,540.375,539.107,0.0
53996.0,STARLINK-5131,PAYLOAD,2023-06-12 01:34:52,15.08842931,0.0001017,53.2166,30.4213,108.433,251.6772,5.8524e-05,6.44e-06,0.0,0 STARLINK-5131,1 53996U 22125AJ  23163.06588152  .00000644  00000-0  58524-4 0  9996,2 53996  53.2166  30.4213 0001017 108.4330 251.6772 15.08842931 38325,6917.871,95.437,540.44,539.033,0.0
53996.0,STARLINK-5131,PAYLOAD,2023-06-12 07:56:24,15.08842019,8.85e-05,53.2177,29.2311,102.579,257.5301,4.4187e-05,4.16e-06,0.0,0 STARLINK-5131,1 53996U 22125AJ  23163.33084183  .00000416  00000-0  44187-4 0  9998,2 53996  53.2177  29.2311 0000885 102.5790 257.5301 15.08842019 38295,6917.874,95.437,540.351,539.127,0.0
53996.0,STARLINK-5131,PAYLOAD,2023-06-12 14:17:58,15.08832212,9.23e-05,53.2184,28.0428,108.6088,251.5004,8.8056e-06,-1.48e-06,0.0,0 STARLINK-5131,1 53996U 22125AJ  23163.59581051 -.00000148  00000-0  88056-5 0  9999,2 53996  53.2184  28.0428 0000923 108.6088 251.5004 15.08832212 38400,6917.904,95.438,540.408,539.131,0.0
53996.0,STARLINK-5131,PAYLOAD,2023-06-12 23:50:16,15.08842593,0.0001048,53.2191,26.2612,116.9315,243.1785,4.1157e-05,3.67e-06,0.0,0 STARLINK-5131,1 53996U 22125AJ  23163.99324431  .00000367  00000-0  41157-4 0  9992,2 53996  53.2191  26.2612 0001048 116.9315 243.1785 15.08842593 38469,6917.872,95.437,540.462,539.012,0.0
